NORAD_CAT_ID,OBJECT_NAME,OBJECT_TYPE,EPOCH,MEAN_MOTION,ECCENTRICITY,INCLINATION,RA_OF_ASC_NODE,ARG_OF_PERICENTER,MEAN_ANOMALY,BSTAR,MEAN_MOTION_DOT,MEAN_MOTION_DDOT,TLE_LINE0,TLE_LINE1,TLE_LINE2,SEMIMAJOR_AXIS,PERIOD,APOGEE,PERIGEE,DECAYED
49165.0,STARLINK-3052,PAYLOAD,2023-01-21 03:18:19,14.9833904,0.0003194999999999,70.0026,297.7577,275.4503,84.6292,0.00085441,0.00010119,0.0,0 STARLINK-3052,1 49165U 21082AM  23021.13772690  .00010119  00000-0  85441-3 0  9998,2 49165  70.0026 297.7577 0003195 275.4503  84.6292 14.98339040 75891,6950.165,96.106,574.251,569.809,0.0
49165.0,STARLINK-3052,PAYLOAD,2023-01-21 11:19:00,14.98335802,0.0002501999999999,70.0041,296.9165,268.9855,91.1017,0.00075681,8.950000000000001e-05,0.0,0 STARLINK-3052,1 49165U 21082AM  23021.47152891  .00008950  00000-0  75681-3 0  9995,2 49165  70.0041 296.9165 0002502 268.9855  91.1017 14.98335802 75946,6950.175,96.107,573.779,570.3009999999999,0.0
49165.0,STARLINK-3052,PAYLOAD,2023-01-22 17:45:32,14.98332616,0.0002546,70.0034,293.7148,268.0281,92.0587,-5.9717e-05,-8.05e-06,0.0,0 STARLINK-3052,1 49165U 21082AM  23022.73996411 -.00000805  00000-0 -59717-4 0  9995,2 49165  70.0034 293.7148 0002546 268.0281  92.0587 14.98332616 76130,6950.185,96.107,573.819,570.28,0.0
49165.0,STARLINK-3052,PAYLOAD,2023-01-23 03:22:21,14.98330395,0.000287,70.003,292.7086,273.4711,86.6119,0.00010516,1.162e-05,0.0,0 STARLINK-3052,1 49165U 21082AM  23023.14053100  .00001162  00000-0  10516-3 0  9998,2 49165  70.0030 292.7086 0002870 273.4711  86.6119 14.98330395 76192,6950.191999999999,96.107,574.0509999999999,570.062,0.0
49165.0,STARLINK-3052,PAYLOAD,2023-01-24 03:24:22,14.98348507,0.0002901999999999,70.0016,290.1827,276.036,84.0468,0.001156,0.00013734,0.0,0 STARLINK-3052,1 49165U 21082AM  23024.14192499  .00013734  00000-0  11560-2 0  9991,2 49165  70.0016 290.1827 0002902 276.0360  84.0468 14.98348507 76346,6950.136,96.106,574.018,569.984,0.0
49165.0,STARLINK-3052,PAYLOAD,2023-01-24 19:25:43,14.98334852,0.0003022,70.0015,288.5004,275.7077,84.3737,0.00017358,1.979e-05,0.0,0 STARLINK-3052,1 49165U 21082AM  23024.80952675  .00001979  00000-0  17358-3 0  9994,2 49165  70.0015 288.5004 0003022 275.7077  84.3737 14.98334852 76449,6950.178000000001,96.107,574.143,569.943,0.0
49165.0,STARLINK-3052,PAYLOAD,2023-01-25 03:26:23,14.98340078,0.000302,70.0013,287.6579,273.7723,86.3091,0.0003714,4.342e-05,0.0,0 STARLINK-3052,1 49165U 21082AM  23025.14332533  .00004342  00000-0  37140-3 0  9995,2 49165  70.0013 287.6579 0003020 273.7723  86.3091 14.98340078 76484,6950.161999999999,96.106,574.126,569.928,0.0
49165.0,STARLINK-3052,PAYLOAD,2023-01-25 19:27:44,14.98332729,0.0003002,70.0009,285.9749,273.5913,86.4903,0.00010609,1.173e-05,0.0,0 STARLINK-3052,1 49165U 21082AM  23025.81092660  .00001173  00000-0  10609-3 0  9993,2 49165  70.0009 285.9749 0003002 273.5913  86.4903 14.98332729 76597,6950.184,96.107,574.136,569.9630000000001,0.0
49165.0,STARLINK-3052,PAYLOAD,2023-01-26 03:28:24,14.98339681,0.0002991,70.0008,285.133,274.3339,85.7478,0.00025605,2.964e-05,0.0,0 STARLINK-3052,1 49165U 21082AM  23026.14472384  .00002964  00000-0  25605-3 0  9996,2 49165  70.0008 285.1330 0002991 274.3339  85.7478 14.98339681 76639,6950.1630000000005,96.106,574.107,569.9490000000001,0.0
49165.0,STARLINK-3052,PAYLOAD,2023-01-26 19:29:45,14.98315637,0.0003182,70.0005,283.4502,270.4258,89.6537,-0.00017145,-2.137e-05,0.0,0 STARLINK-3052,1 49165U 21082AM  23026.81233715 -.00002137  00000-0 -17145-3 0  9997,2 49165  70.0005 283.4502 0003182 270.4258  89.6537 14.98315637 76744,6950.236999999999,96.108,574.314,569.891,0.0
49165.0,STARLINK-3052,PAYLOAD,2023-01-27 03:30:26,14.98317145,0.0003226,70.0002,282.6081,270.9513,89.1276,-4.985e-05,-6.88e-06,0.0,0 STARLINK-3052,1 49165U 21082AM  23027.14614176 -.00000688  00000-0 -49850-4 0  9996,2 49165  70.0002 282.6081 0003226 270.9513  89.1276 14.98317145 76787,6950.233,96.108,574.34,569.855,0.0
49165.0,STARLINK-3052,PAYLOAD,2023-01-27 19:31:47,14.98331695,0.0003333999999999,70.0002,280.925,270.4319,89.6458,0.00039003,4.564e-05,0.0,0 STARLINK-3052,1 49165U 21082AM  23027.81373931  .00004564  00000-0  39003-3 0  9994,2 49165  70.0002 280.9250 0003334 270.4319  89.6458 14.98331695 76890,6950.188,96.107,574.37,569.735,0.0
49165.0,STARLINK-3052,PAYLOAD,2023-01-27 21:07:55,14.98334398,0.0003325,70.0003,280.7566,270.8464,89.2314,0.00047739,5.608e-05,0.0,0 STARLINK-3052,1 49165U 21082AM  23027.88049898  .00005608  00000-0  47739-3 0  9998,2 49165  70.0003 280.7566 0003325 270.8464  89.2314 14.98334398 76894,6950.179,96.107,574.355,569.7330000000001,0.0
49165.0,STARLINK-3052,PAYLOAD,2023-01-28 03:32:27,14.98350177,0.0003275,70.0006,280.0832,274.3975,85.681,0.0013224,0.0001573,0.0,0 STARLINK-3052,1 49165U 21082AM  23028.14753847  .00015730  00000-0  13224-2 0  9992,2 49165  70.0006 280.0832 0003275 274.3975  85.6810 14.98350177 76946,6950.13,96.106,574.272,569.719,0.0
49165.0,STARLINK-3052,PAYLOAD,2023-01-28 17:57:39,14.98355644,0.0003156,70.0008,278.5678,273.584,86.4958,0.00077309,9.15e-05,0.0,0 STARLINK-3052,1 49165U 21082AM  23028.74837132  .00009150  00000-0  77309-3 0  9992,2 49165  70.0008 278.5678 0003156 273.5840  86.4958 14.98355644 77035,6950.114,96.105,574.172,569.785,0.0
49165.0,STARLINK-3052,PAYLOAD,2023-01-28 21:09:55,14.98357844,0.0003162,70.0008,278.231,273.3318,86.7479,0.00078373,9.278e-05,0.0,0 STARLINK-3052,1 49165U 21082AM  23028.88188901  .00009278  00000-0  78373-3 0  9993,2 49165  70.0008 278.2310 0003162 273.3318  86.7479 14.98357844 77046,6950.107,96.105,574.169,569.774,0.0
49165.0,STARLINK-3052,PAYLOAD,2023-01-29 17:59:39,14.98342968,0.0003295,70.0011,276.0434,270.1488,89.9294,0.00020486,2.353e-05,0.0,0 STARLINK-3052,1 49165U 21082AM  23029.74976336  .00002353  00000-0  20486-3 0  9995,2 49165  70.0011 276.0434 0003295 270.1488  89.9294 14.98342968 77189,6950.153,96.106,574.308,569.728,0.0
49165.0,STARLINK-3052,PAYLOAD,2023-01-29 22:48:03,14.98337874,0.0003218,70.0012,275.5374,271.143,88.936,-6.9595e-05,-9.23e-06,0.0,0 STARLINK-3052,1 49165U 21082AM  23029.95004390 -.00000923  00000-0 -69595-4 0  9998,2 49165  70.0012 275.5374 0003218 271.1430  88.9360 14.98337874 77206,6950.169,96.106,574.27,569.797,0.0
49165.0,STARLINK-3052,PAYLOAD,2023-01-30 14:49:24,14.98337616,0.0003153,70.001,273.8542,271.5349,88.5449,3.9671e-06,-4.6e-07,0.0,0 STARLINK-3052,1 49165U 21082AM  23030.61764273 -.00000046  00000-0  39671-5 0  9994,2 49165  70.0010 273.8542 0003153 271.5349  88.5449 14.98337616 77302,6950.169,96.107,574.226,569.843,0.0
49165.0,STARLINK-3052,PAYLOAD,2023-01-30 22:50:04,14.98339352,0.0003165,70.001,273.013,271.4278,88.6518,8.7806e-05,9.55e-06,0.0,0 STARLINK-3052,1 49165U 21082AM  23030.95144072  .00000955  00000-0  87806-4 0  9990,2 49165  70.0010 273.0130 0003165 271.4278  88.6518 14.98339352 77352,6950.164,96.106,574.229,569.829,0.0
49165.0,STARLINK-3052,PAYLOAD,2023-01-31 14:51:25,14.98335089,0.0003065,70.0007,271.3298,271.0997,88.9811,0.00017649,2.014e-05,0.0,0 STARLINK-3052,1 49165U 21082AM  23031.61904152  .00002014  00000-0  17649-3 0  9992,2 49165  70.0007 271.3298 0003065 271.0997  88.9811 14.98335089 77450,6950.177,96.107,574.172,569.912,0.0
49165.0,STARLINK-3052,PAYLOAD,2023-01-31 16:27:33,14.98336353,0.0003067,70.0006,271.1616,270.8241,89.2566,0.00019008,2.176e-05,0.0,0 STARLINK-3052,1 49165U 21082AM  23031.68580052  .00002176  00000-0  19008-3 0  9998,2 49165  70.0006 271.1616 0003067 270.8241  89.2566 14.98336353 77470,6950.173,96.107,574.17,569.907,0.0
49165.0,STARLINK-3052,PAYLOAD,2023-02-01 02:04:21,14.98340282,0.0003048,70.0003,270.1515,270.8499,89.2311,0.00022739,2.622e-05,0.0,0 STARLINK-3052,1 49165U 21082AM  23032.08635717  .00002622  00000-0  22739-3 0  9993,2 49165  70.0003 270.1515 0003048 270.8499  89.2311 14.98340282 77528,6950.161,96.106,574.145,569.908,0.0
49165.0,STARLINK-3052,PAYLOAD,2023-02-02 02:06:22,14.98334415,0.0003002,69.999,267.6264,272.1551,87.9264,5.1588e-05,5.23e-06,0.0,0 STARLINK-3052,1 49165U 21082AM  23033.08775848  .00000523  00000-0  51588-4 0  9997,2 49165  69.9990 267.6264 0003002 272.1551  87.9264 14.98334415 77686,6950.179,96.107,574.131,569.958,0.0
49165.0,STARLINK-3052,PAYLOAD,2023-02-02 14:55:26,14.98331481,0.0002114,69.9968,266.2805,266.4998,93.5919,0.00015314,1.735e-05,0.0,0 STARLINK-3052,1 49165U 21082AM  23033.62184024  .00001735  00000-0  15314-3 0  9999,2 49165  69.9968 266.2805 0002114 266.4998  93.5919 14.98331481 77759,6950.188,96.107,573.523,570.584,0.0
49165.0,STARLINK-3052,PAYLOAD,2023-02-03 02:08:23,14.98334275,0.0002903,69.9973,265.1013,269.7553,90.3273,4.8796e-05,4.89e-06,0.0,0 STARLINK-3052,1 49165U 21082AM  23034.08915824  .00000489  00000-0  48796-4 0  9996,2 49165  69.9973 265.1013 0002903 269.7553  90.3273 14.98334275 77834,6950.18,96.107,574.062,570.027,0.0
49165.0,STARLINK-3052,PAYLOAD,2023-02-03 14:57:27,14.98330965,0.0002936,69.9972,263.7547,270.0836,89.9987,8.0707e-05,8.7e-06,0.0,0 STARLINK-3052,1 49165U 21082AM  23034.62324028  .00000870  00000-0  80707-4 0  9998,2 49165  69.9972 263.7547 0002936 270.0836  89.9987 14.98330965 77900,6950.19,96.107,574.095,570.014,0.0
49165.0,STARLINK-3052,PAYLOAD,2023-02-04 19:47:52,14.98334955,0.0002972,69.9987,260.7242,267.7175,92.3643,9.156e-05,1e-05,0.0,0 STARLINK-3052,1 49165U 21082AM  23035.82491575  .00001000  00000-0  91560-4 0  9998,2 49165  69.9987 260.7242 0002972 267.7175  92.3643 14.98334955 78095,6950.178,96.107,574.108,569.977,0.0
49165.0,STARLINK-3052,PAYLOAD,2023-02-04 21:24:00,14.98334654,0.0002976,69.9988,260.5559,267.7378,92.344,8.3776e-05,9.07e-06,0.0,0 STARLINK-3052,1 49165U 21082AM  23035.89167570  .00000907  00000-0  83776-4 0  9995,2 49165  69.9988 260.5559 0002976 267.7378  92.3440 14.98334654 78095,6950.178,96.107,574.112,569.975,0.0
